NORAD_CAT_ID,OBJECT_NAME,OBJECT_TYPE,EPOCH,MEAN_MOTION,ECCENTRICITY,INCLINATION,RA_OF_ASC_NODE,ARG_OF_PERICENTER,MEAN_ANOMALY,BSTAR,MEAN_MOTION_DOT,MEAN_MOTION_DDOT,TLE_LINE0,TLE_LINE1,TLE_LINE2,SEMIMAJOR_AXIS,PERIOD,APOGEE,PERIGEE,DECAYED
51143.0,STARLINK-3184,PAYLOAD,2024-05-14 21:27:56,15.08865472,0.0001189,53.2178,49.0122,88.9355,271.1774,0.00095679,0.00014983,0.0,0 STARLINK-3184,1 51143U 22005AR  24135.89440698  .00014983  00000-0  95679-3 0  9990,2 51143  53.2178  49.0122 0001189  88.9355 271.1774 15.08865472129497,6917.803,95.436,540.49,538.845,0.0
51143.0,STARLINK-3184,PAYLOAD,2024-05-15 03:49:29,15.0885822,0.0001404,53.2175,47.8234,73.667,286.4476,0.0019819,0.00031411,0.0,0 STARLINK-3184,1 51143U 22005AR  24136.15936626  .00031411  00000-0  19819-2 0  9997,2 51143  53.2175  47.8234 0001404  73.6670 286.4476 15.08858220128428,6917.825,95.436,540.661,538.718,0.0
51143.0,STARLINK-3184,PAYLOAD,2024-05-15 21:18:43,15.08850308,0.0001644,53.2173,44.5474,92.2695,267.8485,0.0004942,7.588e-05,0.0,0 STARLINK-3184,1 51143U 22005AR  24136.88800555  .00007588  00000-0  49420-3 0  9998,2 51143  53.2173  44.5474 0001644  92.2695 267.8485 15.08850308129643,6917.849,95.437,540.851,538.577,0.0
51143.0,STARLINK-3184,PAYLOAD,2024-05-15 22:54:06,15.08848758,0.000155,53.2183,44.2513,89.4235,270.6935,0.00013113,1.8e-05,0.0,0 STARLINK-3184,1 51143U 22005AR  24136.95424482  .00001800  00000-0  13113-3 0  9998,2 51143  53.2183  44.2513 0001550  89.4235 270.6935 15.08848758128545,6917.854,95.437,540.791,538.646,0.0
51143.0,STARLINK-3184,PAYLOAD,2024-05-16 00:29:29,15.08855066,0.0001455,53.2188,43.9553,92.7384,267.3774,6.0306e-05,6.72e-06,0.0,0 STARLINK-3184,1 51143U 22005AR  24137.02048200  .00000672  00000-0  60306-4 0  9990,2 51143  53.2188  43.9553 0001455  92.7384 267.3774 15.08855066128551,6917.834,95.437,540.706,538.693,0.0
51143.0,STARLINK-3184,PAYLOAD,2024-05-16 17:58:44,15.088502,0.0001435,53.2184,40.6856,88.2607,271.8549,0.00032759,4.931e-05,0.0,0 STARLINK-3184,1 51143U 22005AR  24137.74912309  .00004931  00000-0  32759-3 0  9991,2 51143  53.2184  40.6856 0001435  88.2607 271.8549 15.08850200129773,6917.849,95.437,540.707,538.722,0.0
51143.0,STARLINK-3184,PAYLOAD,2024-05-17 00:20:16,15.08840221,4.74e-05,53.2182,39.4944,87.459,272.6457,6.4967e-05,7.47e-06,0.0,0 STARLINK-3184,1 51143U 22005AR  24138.01408442  .00000747  00000-0  64967-4 0  9998,2 51143  53.2182  39.4944 0000474  87.4590 272.6457 15.08840221129813,6917.88,95.438,540.073,539.417,0.0
51143.0,STARLINK-3184,PAYLOAD,2024-05-17 09:52:33,15.08890766,0.0001253,53.2179,37.7096,284.4847,75.6006,0.0011046,0.0001736,0.0,0 STARLINK-3184,1 51143U 22005AR  24138.41150085  .00017360  00000-0  11046-2 0  9996,2 51143  53.2179  37.7096 0001253 284.4847  75.6006 15.08890766129874,6917.725,95.434,540.457,538.723,0.0
51143.0,STARLINK-3184,PAYLOAD,2024-05-17 17:49:32,15.0881588,0.0001905,53.219,36.2272,88.7539,271.3671,-0.00042566,-7.052e-05,0.0,0 STARLINK-3184,1 51143U 22005AR  24138.74273513 -.00007052  00000-0 -42566-3 0  9995,2 51143  53.2190  36.2272 0001905  88.7539 271.3671 15.08815880129927,6917.954,95.439,541.137,538.501,0.0
51143.0,STARLINK-3184,PAYLOAD,2024-05-17 22:35:42,15.08809753,0.00015,53.2192,35.3354,89.4222,270.6942,-0.0004773,-7.87e-05,0.0,0 STARLINK-3184,1 51143U 22005AR  24138.94146010 -.00007870  00000-0 -47730-3 0  9994,2 51143  53.2192  35.3354 0001500  89.4222 270.6942 15.08809753128843,6917.973,95.439,540.876,538.8,0.0
51143.0,STARLINK-3184,PAYLOAD,2024-05-18 09:43:23,15.08839687,0.0001136,53.2181,33.2517,78.0119,282.1001,0.00018223,2.614e-05,0.0,0 STARLINK-3184,1 51143U 22005AR  24139.40513224  .00002614  00000-0  18223-3 0  9995,2 51143  53.2181  33.2517 0001136  78.0119 282.1001 15.08839687130029,6917.881,95.438,540.532,538.96,0.0
51143.0,STARLINK-3184,PAYLOAD,2024-05-18 20:51:06,15.08820366,0.0001138,53.2171,31.1699,93.8806,266.2316,7.7458e-07,-2.75e-06,0.0,0 STARLINK-3184,1 51143U 22005AR  24139.86882654 -.00000275  00000-0  77458-6 0  9991,2 51143  53.2171  31.1699 0001138  93.8806 266.2316 15.08820366130099,6917.94,95.439,540.593,539.018,0.0
51143.0,STARLINK-3184,PAYLOAD,2024-05-18 22:26:29,15.0882175,0.000123,53.2184,30.8733,104.0859,256.0269,1.571e-05,-3.8e-07,0.0,0 STARLINK-3184,1 51143U 22005AR  24139.93506584 -.00000038  00000-0  15710-4 0  9992,2 51143  53.2184  30.8733 0001230 104.0859 256.0269 15.08821750128992,6917.936,95.439,540.652,538.95,0.0
51143.0,STARLINK-3184,PAYLOAD,2024-05-19 01:37:16,15.08829657,0.0001081,53.2158,30.2787,70.2302,289.8806,0.00031155,4.673e-05,0.0,0 STARLINK-3184,1 51143U 22005AR  24140.06754739  .00004673  00000-0  31155-3 0  9993,2 51143  53.2158  30.2787 0001081  70.2302 289.8806 15.08829657129016,6917.912,95.438,540.525,539.029,0.0
51143.0,STARLINK-3184,PAYLOAD,2024-05-20 01:28:03,15.08848664,0.0001314,53.2182,25.82,76.8971,283.2168,0.00067324,0.00010445,0.0,0 STARLINK-3184,1 51143U 22005AR  24141.06114999  .00010445  00000-0  67324-3 0  9993,2 51143  53.2182  25.8200 0001314  76.8971 283.2168 15.08848664130274,6917.854,95.437,540.628,538.81,0.0
51143.0,STARLINK-3184,PAYLOAD,2024-05-20 20:32:40,15.08848249,0.0001236,53.2182,22.2495,80.8024,279.3108,0.00019201,2.77e-05,0.0,0 STARLINK-3184,1 51143U 22005AR  24141.85602639  .00002770  00000-0  19201-3 0  9996,2 51143  53.2182  22.2495 0001236  80.8024 279.3108 15.08848249130390,6917.855,95.437,540.575,538.865,0.0
51143.0,STARLINK-3184,PAYLOAD,2024-05-20 23:43:27,15.08845493,0.000129,53.2188,21.6547,82.5746,277.5393,0.00020046,2.904e-05,0.0,0 STARLINK-3184,1 51143U 22005AR  24141.98850753  .00002904  00000-0  20046-3 0  9990,2 51143  53.2188  21.6547 0001290  82.5746 277.5393 15.08845493129300,6917.864,95.437,540.621,538.836,0.0
51143.0,STARLINK-3184,PAYLOAD,2024-05-21 20:23:27,15.08843824,0.0001311,53.2189,17.7905,80.1127,280.0013,0.00029159,4.356e-05,0.0,0 STARLINK-3184,1 51143U 22005AR  24142.84962621  .00004356  00000-0  29159-3 0  9991,2 51143  53.2189  17.7905 0001311  80.1127 280.0013 15.08843824130548,6917.869,95.437,540.641,538.827,0.0
51143.0,STARLINK-3184,PAYLOAD,2024-05-21 21:58:50,15.08847151,0.0001362,53.219,17.4938,78.5128,281.6017,0.00020338,2.951e-05,0.0,0 STARLINK-3184,1 51143U 22005AR  24142.91586441  .00002951  00000-0  20338-3 0  9990,2 51143  53.2190  17.4938 0001362  78.5128 281.6017 15.08847151129446,6917.859,95.437,540.666,538.781,0.0
51143.0,STARLINK-3184,PAYLOAD,2024-05-22 05:55:45,15.08864154,0.0001313,53.2192,16.0071,85.1729,274.9413,0.00027591,4.109e-05,0.0,0 STARLINK-3184,1 51143U 22005AR  24143.24705226  .00004109  00000-0  27591-3 0  9996,2 51143  53.2192  16.0071 0001313  85.1729 274.9413 15.08864154130605,6917.807,95.436,540.58,538.763,0.0
51143.0,STARLINK-3184,PAYLOAD,2024-05-22 20:14:14,15.08834384,0.0001368,53.2186,13.3269,65.1423,294.9711,-4.1081e-05,-9.42e-06,0.0,0 STARLINK-3184,1 51143U 22005AR  24143.84322709 -.00000942  00000-0 -41081-4 0  9997,2 51143  53.2186  13.3269 0001368  65.1423 294.9711 15.08834384130690,6917.898,95.438,540.709,538.816,0.0
51143.0,STARLINK-3184,PAYLOAD,2024-05-22 21:49:38,15.0883496,0.0001558,53.219,13.0294,65.2518,294.8636,-2.5228e-05,-6.89e-06,0.0,0 STARLINK-3184,1 51143U 22005AR  24143.90946766 -.00000689  00000-0 -25228-4 0  9992,2 51143  53.2190  13.0294 0001558  65.2518 294.8636 15.08834960129599,6917.896,95.438,540.839,538.683,0.0
51143.0,STARLINK-3184,PAYLOAD,2024-05-23 18:29:38,15.08846422,0.000113,53.2178,9.1705,101.2792,258.8327,3.0852e-06,-2.39e-06,0.0,0 STARLINK-3184,1 51143U 22005AR  24144.77058030 -.00000239  00000-0  30852-5 0  9996,2 51143  53.2178   9.1705 0001130 101.2792 258.8327 15.08846422130831,6917.861,95.437,540.507,538.944,0.0
51143.0,STARLINK-3184,PAYLOAD,2024-05-23 20:05:01,15.08847196,0.0001248,53.2183,8.8615,70.1534,289.9592,-9.7718e-06,-4.43e-06,0.0,0 STARLINK-3184,1 51143U 22005AR  24144.83682029 -.00000443  00000-0 -97718-5 0  9996,2 51143  53.2183   8.8615 0001248  70.1534 289.9592 15.08847196129736,6917.858,95.437,540.587,538.86,0.0
51143.0,STARLINK-3184,PAYLOAD,2024-05-24 00:51:10,15.08849789,0.0001269,53.2185,7.9756,91.4693,268.6445,9.1937e-05,1.176e-05,0.0,0 STARLINK-3184,1 51143U 22005AR  24145.03553755  .00001176  00000-0  91937-4 0  9990,2 51143  53.2185   7.9756 0001269  91.4693 268.6445 15.08849789129763,6917.85,95.437,540.593,538.838,0.0
51143.0,STARLINK-3184,PAYLOAD,2024-05-24 21:31:13,15.08815457,9.61e-05,53.2187,4.1129,110.5512,249.5583,-6.4155e-05,-1.308e-05,0.0,0 STARLINK-3184,1 51143U 22005AR  24145.89668152 -.00001308  00000-0 -64155-4 0  9993,2 51143  53.2187   4.1129 0000961 110.5512 249.5583 15.08815457131005,6917.955,95.439,540.485,539.156,0.0
51143.0,STARLINK-3184,PAYLOAD,2024-05-25 00:41:58,15.0883343,0.0001056,53.2176,3.5175,77.8562,282.2548,1.2304e-05,-9.2e-07,0.0,0 STARLINK-3184,1 51143U 22005AR  24146.02914724 -.00000092  00000-0  12304-4 0  9995,2 51143  53.2176   3.5175 0001056  77.8562 282.2548 15.08833430131021,6917.9,95.438,540.496,539.035,0.0
51143.0,STARLINK-3184,PAYLOAD,2024-05-25 07:03:29,15.08851038,0.0001108,53.2187,2.3285,81.3928,278.7189,0.00020437,2.967e-05,0.0,0 STARLINK-3184,1 51143U 22005AR  24146.29409476  .00002967  00000-0  20437-3 0  9994,2 51143  53.2187   2.3285 0001108  81.3928 278.7189 15.08851038131065,6917.847,95.437,540.478,538.945,0.0
51143.0,STARLINK-3184,PAYLOAD,2024-05-25 19:46:36,15.0883882,0.0001051,53.2185,359.949,81.5741,278.5371,-7.1372e-06,-4.01e-06,0.0,0 STARLINK-3184,1 51143U 22005AR  24146.82403009 -.00000401  00000-0 -71372-5 0  9998,2 51143  53.2185 359.9490 0001051  81.5741 278.5371 15.08838820131148,6917.884,95.438,540.476,539.022,0.0
51143.0,STARLINK-3184,PAYLOAD,2024-05-26 21:12:46,15.08835827,0.0001059,53.218,355.1911,73.2584,286.8525,0.00015096,2.115e-05,0.0,0 STARLINK-3184,1 51143U 22005AR  24147.88387047  .00002115  00000-0  15096-3 0  9999,2 51143  53.2180 355.1911 0001059  73.2584 286.8525 15.08835827131305,6917.893,95.438,540.491,539.026,0.0
